{"type": "FeatureCollection", "features": [ {"type": "Feature", "properties": {"norad_id": 30369, "name": "FENGYUN 1C DEB", "group": "fengyun-1c-debris", "lat": 57.992132545069445, "lon": -30.891965963506696, "alt_km": 900.1965351332483, "timestamp": "2025-12-11T22:43:47.544790+00:00", "meta": {"OBJECT_NAME": "FENGYUN 1C DEB", "OBJECT_ID": "1999-025ACG", "EPOCH": "2025-12-11T12:49:19.064352", "MEAN_MOTION": 14.12056236, "ECCENTRICITY": 0.00991261, "INCLINATION": 98.7212, "RA_OF_ASC_NODE": 342.9221, "ARG_OF_PERICENTER": 198.9357, "MEAN_ANOMALY": 283.5503, "EPHEMERIS_TYPE": 0, "CLASSIFICATION_TYPE": "U", "NORAD_CAT_ID": 30369, "ELEMENT_SET_NO": 999, "REV_AT_EPOCH": 97229, "BSTAR": 0.00031611334, "MEAN_MOTION_DOT": 5.64e-06, "MEAN_MOTION_DDOT": 0}, "tle": {"line1": "1 30369U 99025ACG 25345.53424843  .00000564  00000+0  31611-3 0  9997", "line2": "2 30369  98.7212 342.9221 0099126 198.9357 283.5503 14.12056236972299"}}, "geometry": {"type": "Point", "coordinates": [-30.891965963506696, 57.992132545069445]}}, {"type": "Feature", "properties": {"norad_id": 30370, "name": "FENGYUN 1C DEB", "group": "fengyun-1c-debris", "lat": -35.109726894992434, "lon": 48.31656526508566, "alt_km": 763.1949557910266, "timestamp": "2025-12-11T22:43:47.544800+00:00", "meta": {"OBJECT_NAME": "FENGYUN 1C DEB", "OBJECT_ID": "1999-025ACH", "EPOCH": "2025-12-11T15:12:27.874080", "MEAN_MOTION": 14.19141734, "ECCENTRICITY": 0.00992026, "INCLINATION": 99.0563, "RA_OF_ASC_NODE": 41.558, "ARG_OF_PERICENTER": 320.5303, "MEAN_ANOMALY": 203.5012, "EPHEMERIS_TYPE": 0, "CLASSIFICATION_TYPE": "U", "NORAD_CAT_ID": 30370, "ELEMENT_SET_NO": 999, "REV_AT_EPOCH": 97078, "BSTAR": 0.0017770548, "MEAN_MOTION_DOT": 3.86e-05, "MEAN_MOTION_DDOT": 0}, "tle": {"line1": "1 30370U 99025ACH 25345.63365595  .00003860  00000+0  17771-2 0  9990", "line2": "2 30370  99.0563  41.5580 0099202 320.5303 203.5012 14.19141734970787"}}, "geometry": {"type": "Point", "coordinates": [48.31656526508566, -35.109726894992434]}}, {"type": "Feature", "properties": {"norad_id": 30371, "name": "FENGYUN 1C DEB", "group": "fengyun-1c-debris", "lat": -49.19582326865823, "lon": 39.02817941180914, "alt_km": 793.5093336657501, "timestamp": "2025-12-11T22:43:47.544811+00:00", "meta": {"OBJECT_NAME": "FENGYUN 1C DEB", "OBJECT_ID": "1999-025ACJ", "EPOCH": "2025-12-11T15:16:50.429856", "MEAN_MOTION": 14.30222815, "ECCENTRICITY": 0.00069007, "INCLINATION": 98.5764, "RA_OF_ASC_NODE": 28.6549, "ARG_OF_PERICENTER": 340.499, "MEAN_ANOMALY": 172.478, "EPHEMERIS_TYPE": 0, "CLASSIFICATION_TYPE": "U", "NORAD_CAT_ID": 30371, "ELEMENT_SET_NO": 999, "REV_AT_EPOCH": 97887, "BSTAR": 0.0015910332, "MEAN_MOTION_DOT": 4.082e-05, "MEAN_MOTION_DDOT": 0}, "tle": {"line1": "1 30371U 99025ACJ 25345.63669479  .00004082  00000+0  15910-2 0  9999", "line2": "2 30371  98.5764  28.6549 0006900 340.4990 172.4780 14.30222815978879"}}, "geometry": {"type": "Point", "coordinates": [39.02817941180914, -49.19582326865823]}}, {"type": "Feature", "properties": {"norad_id": 30374, "name": "FENGYUN 1C DEB", "group": "fengyun-1c-debris", "lat": -51.402054049659505, "lon": -138.80213466894153, "alt_km": 716.2996922371876, "timestamp": "2025-12-11T22:43:47.544821+00:00", "meta": {"OBJECT_NAME": "FENGYUN 1C DEB", "OBJECT_ID": "1999-025ACM", "EPOCH": "2025-12-11T02:20:24.859680", "MEAN_MOTION": 14.61235461, "ECCENTRICITY": 0.00392751, "INCLINATION": 99.2726, "RA_OF_ASC_NODE": 208.4367, "ARG_OF_PERICENTER": 173.1868, "MEAN_ANOMALY": 347.6508, "EPHEMERIS_TYPE": 0, "CLASSIFICATION_TYPE": "U", "NORAD_CAT_ID": 30374, "ELEMENT_SET_NO": 999, "REV_AT_EPOCH": 98898, "BSTAR": 0.0025901304, "MEAN_MOTION_DOT": 0.00012874, "MEAN_MOTION_DDOT": 0}, "tle": {"line1": "1 30374U 99025ACM 25345.09750995  .00012874  00000+0  25901-2 0  9995", "line2": "2 30374  99.2726 208.4367 0039275 173.1868 347.6508 14.61235461988982"}}, "geometry": {"type": "Point", "coordinates": [-138.80213466894153, -51.402054049659505]}}, {"type": "Feature", "properties": {"norad_id": 30377, "name": "FENGYUN 1C DEB", "group": "fengyun-1c-debris", "lat": -74.44785274025034, "lon": 39.700151419985424, "alt_km": 820.4717468553008, "timestamp": "2025-12-11T22:43:47.544831+00:00", "meta": {"OBJECT_NAME": "FENGYUN 1C DEB", "OBJECT_ID": "1999-025ACQ", "EPOCH": "2025-12-11T11:51:37.724832", "MEAN_MOTION": 13.99169648, "ECCENTRICITY": 0.01181448, "INCLINATION": 98.8937, "RA_OF_ASC_NODE": 5.023, "ARG_OF_PERICENTER": 270.1316, "MEAN_ANOMALY": 252.4136, "EPHEMERIS_TYPE": 0, "CLASSIFICATION_TYPE": "U", "NORAD_CAT_ID": 30377, "ELEMENT_SET_NO": 999, "REV_AT_EPOCH": 96189, "BSTAR": 0.00048984972, "MEAN_MOTION_DOT": 7.1e-06, "MEAN_MOTION_DDOT": 0}, "tle": {"line1": "1 30377U 99025ACQ 25345.49418663  .00000710  00000+0  48985-3 0  9999", "line2": "2 30377  98.8937   5.0230 0118144 270.1316 252.4136 13.99169648961897"}}, "geometry": {"type": "Point", "coordinates": [39.700151419985424, -74.44785274025034]}}, {"type": "Feature", "properties": {"norad_id": 30379, "name": "FENGYUN 1C DEB", "group": "fengyun-1c-debris", "lat": 15.30485822477685, "lon": -1.7056472388632424, "alt_km": 868.5500158576924, "timestamp": "2025-12-11T22:43:47.544841+00:00", "meta": {"OBJECT_NAME": "FENGYUN 1C DEB", "OBJECT_ID": "1999-025ACS", "EPOCH": "2025-12-11T13:08:44.221056", "MEAN_MOTION": 14.08033134, "ECCENTRICITY": 0.0035506, "INCLINATION": 98.7583, "RA_OF_ASC_NODE": 0.3248, "ARG_OF_PERICENTER": 282.6636, "MEAN_ANOMALY": 229.4135, "EPHEMERIS_TYPE": 0, "CLASSIFICATION_TYPE": "U", "NORAD_CAT_ID": 30379, "ELEMENT_SET_NO": 999, "REV_AT_EPOCH": 96800, "BSTAR": 0.00039567808, "MEAN_MOTION_DOT": 6.34e-06, "MEAN_MOTION_DDOT": 0}, "tle": {"line1": "1 30379U 99025ACS 25345.54773404  .00000634  00000+0  39568-3 0  9996", "line2": "2 30379  98.7583   0.3248 0035506 282.6636 229.4135 14.08033134968009"}}, "geometry": {"type": "Point", "coordinates": [-1.7056472388632424, 15.30485822477685]}}, {"type": "Feature", "properties": {"norad_id": 30380, "name": "FENGYUN 1C DEB", "group": "fengyun-1c-debris", "lat": -65.29863623273157, "lon": 53.47581756587899, "alt_km": 692.5794624169739, "timestamp": "2025-12-11T22:43:47.544851+00:00", "meta": {"OBJECT_NAME": "FENGYUN 1C DEB", "OBJECT_ID": "1999-025ACT", "EPOCH": "2025-12-11T14:45:48.948768", "MEAN_MOTION": 14.50663806, "ECCENTRICITY": 0.01774795, "INCLINATION": 98.9149, "RA_OF_ASC_NODE": 33.1715, "ARG_OF_PERICENTER": 220.7951, "MEAN_ANOMALY": 137.9842, "EPHEMERIS_TYPE": 0, "CLASSIFICATION_TYPE": "U", "NORAD_CAT_ID": 30380, "ELEMENT_SET_NO": 999, "REV_AT_EPOCH": 99549, "BSTAR": 0.00046274432, "MEAN_MOTION_DOT": 2.166e-05, "MEAN_MOTION_DDOT": 0}, "tle": {"line1": "1 30380U 99025ACT 25345.61514987  .00002166  00000+0  46274-3 0  9999", "line2": "2 30380  98.9149  33.1715 0177479 220.7951 137.9842 14.50663806995496"}}, "geometry": {"type": "Point", "coordinates": [53.47581756587899, -65.29863623273157]}}, {"type": "Feature", "properties": {"norad_id": 30381, "name": "FENGYUN 1C DEB", "group": "fengyun-1c-debris", "lat": 4.03445034686539, "lon": 20.324752349593567, "alt_km": 840.7194399227483, "timestamp": "2025-12-11T22:43:47.544861+00:00", "meta": {"OBJECT_NAME": "FENGYUN 1C DEB", "OBJECT_ID": "1999-025ACU", "EPOCH": "2025-12-10T12:43:11.568000", "MEAN_MOTION": 14.12931, "ECCENTRICITY": 0.0054669, "INCLINATION": 98.8137, "RA_OF_ASC_NODE": 19.557, "ARG_OF_PERICENTER": 82.3976, "MEAN_ANOMALY": 278.3401, "EPHEMERIS_TYPE": 0, "CLASSIFICATION_TYPE": "U", "NORAD_CAT_ID": 30381, "ELEMENT_SET_NO": 999, "REV_AT_EPOCH": 92135, "BSTAR": 0.001434, "MEAN_MOTION_DOT": 2.666e-05, "MEAN_MOTION_DDOT": 0}, "tle": {"line1": "1 30381U 99025ACU 25344.52999500  .00002666  00000+0  14340-2 0  9990", "line2": "2 30381  98.8137  19.5570 0054669  82.3976 278.3401 14.12931000921351"}}, "geometry": {"type": "Point", "coordinates": [20.324752349593567, 4.03445034686539]}}, {"type": "Feature", "properties": {"norad_id": 30382, "name": "FENGYUN 1C DEB", "group": "fengyun-1c-debris", "lat": -45.99152194785416, "lon": 33.25074735596581, "alt_km": 736.0682691669144, "timestamp": "2025-12-11T22:43:47.544871+00:00", "meta": {"OBJECT_NAME": "FENGYUN 1C DEB", "OBJECT_ID": "1999-025ACV", "EPOCH": "2025-12-11T13:36:03.615264", "MEAN_MOTION": 14.25279649, "ECCENTRICITY": 0.01547824, "INCLINATION": 98.4993, "RA_OF_ASC_NODE": 23.9768, "ARG_OF_PERICENTER": 0.5087, "MEAN_ANOMALY": 163.6208, "EPHEMERIS_TYPE": 0, "CLASSIFICATION_TYPE": "U", "NORAD_CAT_ID": 30382, "ELEMENT_SET_NO": 999, "REV_AT_EPOCH": 97518, "BSTAR": 0.0012157642, "MEAN_MOTION_DOT": 3.199e-05, "MEAN_MOTION_DDOT": 0}, "tle": {"line1": "1 30382U 99025ACV 25345.56670851  .00003199  00000+0  12158-2 0  9998", "line2": "2 30382  98.4993  23.9768 0154782   0.5087 163.6208 14.25279649975187"}}, "geometry": {"type": "Point", "coordinates": [33.25074735596581, -45.99152194785416]}}, {"type": "Feature", "properties": {"norad_id": 30385, "name": "FENGYUN 1C DEB", "group": "fengyun-1c-debris", "lat": -48.93204326012188, "lon": 176.02627696526926, "alt_km": 727.0062416142555, "timestamp": "2025-12-11T22:43:47.544882+00:00", "meta": {"OBJECT_NAME": "FENGYUN 1C DEB", "OBJECT_ID": "1999-025ACY", "EPOCH": "2025-12-10T13:01:14.490048", "MEAN_MOTION": 14.38780026, "ECCENTRICITY": 0.0124733, "INCLINATION": 99.0821, "RA_OF_ASC_NODE": 5.118, "ARG_OF_PERICENTER": 296.0742, "MEAN_ANOMALY": 223.978, "EPHEMERIS_TYPE": 0, "CLASSIFICATION_TYPE": "U", "NORAD_CAT_ID": 30385, "ELEMENT_SET_NO": 999, "REV_AT_EPOCH": 98737, "BSTAR": 0.00047051, "MEAN_MOTION_DOT": 1.529e-05, "MEAN_MOTION_DDOT": 0}, "tle": {"line1": "1 30385U 99025ACY 25344.54252882  .00001529  00000+0  47051-3 0  9994", "line2": "2 30385  99.0821   5.1180 0124733 296.0742 223.9780 14.38780026987379"}}, "geometry": {"type": "Point", "coordinates": [176.02627696526926, -48.93204326012188]}}]}